{"type": "FeatureCollection", "features": [{"type": "Feature", "geometry": {"type": "Point", "coordinates": [-70.33, -18.48]}, "properties": {"nombre": "Puerto Arica"}}, {"type": "Feature", "geometry": {"type": "Point", "coordinates": [-70.157, -20.222]}, "properties": {"nombre": "Puerto Iquique"}}, {"type": "Feature", "geometry": {"type": "Point", "coordinates": [-70.2, -22.09]}, "properties": {"nombre": "Puerto Tocopilla"}}, {"type": "Feature", "geometry": {"type": "Point", "coordinates": [-70.45, -23.1]}, "properties": {"nombre": "Puerto Mejillones"}}, {"type": "Feature", "geometry": {"type": "Point", "coordinates": [-70.403, -23.65]}, "properties": {"nombre": "Puerto Antofagasta"}}, {"type": "Feature", "geometry": {"type": "Point", "coordinates": [-70.622, -26.35]}, "properties": {"nombre": "Puerto Cha\u00f1aral"}}, {"type": "Feature", "geometry": {"type": "Point", "coordinates": [-71.23, -28.47]}, "properties": {"nombre": "Puerto Huasco"}}, {"type": "Feature", "geometry": {"type": "Point", "coordinates": [-71.337, -29.953]}, "properties": {"nombre": "Puerto Coquimbo"}}, {"type": "Feature", "geometry": {"type": "Point", "coordinates": [-71.487, -32.735]}, "properties": {"nombre": "Puerto Ventanas"}}, {"type": "Feature", "geometry": {"type": "Point", "coordinates": [-71.532, -32.778]}, "properties": {"nombre": "Puerto Quintero"}}, {"type": "Feature", "geometry": {"type": "Point", "coordinates": [-71.633, -33.036]}, "properties": {"nombre": "Puerto Valpara\u00edso"}}, {"type": "Feature", "geometry": {"type": "Point", "coordinates": [-71.618, -33.59]}, "properties": {"nombre": "Puerto San Antonio"}}, {"type": "Feature", "geometry": {"type": "Point", "coordinates": [-73.143, -37.02]}, "properties": {"nombre": "Puerto Coronel"}}, {"type": "Feature", "geometry": {"type": "Point", "coordinates": [-73.113, -36.712]}, "properties": {"nombre": "Puerto Talcahuano"}}, {"type": "Feature", "geometry": {"type": "Point", "coordinates": [-73.16, -37.09]}, "properties": {"nombre": "Puerto Lota"}}, {"type": "Feature", "geometry": {"type": "Point", "coordinates": [-73.84, -38.82]}, "properties": {"nombre": "Puerto Temuco (Nehuent\u00fae)"}}, {"type": "Feature", "geometry": {"type": "Point", "coordinates": [-72.94, -41.47]}, "properties": {"nombre": "Puerto Montt"}}, {"type": "Feature", "geometry": {"type": "Point", "coordinates": [-72.81, -45.46]}, "properties": {"nombre": "Puerto Chacabuco"}}, {"type": "Feature", "geometry": {"type": "Point", "coordinates": [-70.905, -53.163]}, "properties": {"nombre": "Puerto Punta Arenas"}}]}